NORAD_CAT_ID,OBJECT_NAME,OBJECT_TYPE,EPOCH,MEAN_MOTION,ECCENTRICITY,INCLINATION,RA_OF_ASC_NODE,ARG_OF_PERICENTER,MEAN_ANOMALY,BSTAR,MEAN_MOTION_DOT,MEAN_MOTION_DDOT,TLE_LINE0,TLE_LINE1,TLE_LINE2,SEMIMAJOR_AXIS,PERIOD,APOGEE,PERIGEE,DECAYED
54101.0,STARLINK-5204,PAYLOAD,2023-03-22 15:14:44,15.08844193,0.0001652,53.2179,140.8933,127.595,232.5193,6.3509e-05,7.23e-06,0.0,0 STARLINK-5204,1 54101U 22136BC  23081.63523698  .00000723  00000-0  63509-4 0  9990,2 54101  53.2179 140.8933 0001652 127.5950 232.5193 15.08844193 24162,6917.868,95.437,540.875,538.59,0.0
54101.0,STARLINK-5204,PAYLOAD,2023-03-23 03:57:50,15.08839953,0.0001352,53.2169,138.5188,92.9277,267.187,2.0421e-05,3.7e-07,0.0,0 STARLINK-5204,1 54101U 22136BC  23082.16516292  .00000037  00000-0  20421-4 0  9995,2 54101  53.2169 138.5188 0001352  92.9277 267.1870 15.08839953 24244,6917.881,95.438,540.681,538.81,0.0
54101.0,STARLINK-5204,PAYLOAD,2023-03-23 10:19:22,15.08847358,0.0001404,53.2174,137.3279,109.2515,250.8629,2.9361e-05,1.79e-06,0.0,0 STARLINK-5204,1 54101U 22136BC  23082.43011676  .00000179  00000-0  29361-4 0  9990,2 54101  53.2174 137.3279 0001404 109.2515 250.8629 15.08847358 24286,6917.858,95.437,540.694,538.752,0.0
54101.0,STARLINK-5204,PAYLOAD,2023-03-24 11:45:30,15.08872333,0.0001193,53.2187,132.5678,104.4365,255.676,0.00024347,3.592e-05,0.0,0 STARLINK-5204,1 54101U 22136BC  23083.48993112  .00003592  00000-0  24347-3 0  9990,2 54101  53.2187 132.5678 0001193 104.4365 255.6760 15.08872333 24443,6917.782,95.436,540.472,538.821,0.0
54101.0,STARLINK-5204,PAYLOAD,2023-03-24 19:42:31,15.08796038,0.0001451,53.2187,131.0838,94.3108,265.805,-0.00044472,-7.35e-05,0.0,0 STARLINK-5204,1 54101U 22136BC  23083.82119722 -.00007350  00000-0 -44472-3 0  9994,2 54101  53.2187 131.0838 0001451  94.3108 265.8050 15.08796038 24491,6918.015,95.44,540.884,538.876,0.0
54101.0,STARLINK-5204,PAYLOAD,2023-03-25 03:39:27,15.08799718,0.0001211,53.2176,129.598,109.4912,250.6211,-0.00029112,-4.913e-05,0.0,0 STARLINK-5204,1 54101U 22136BC  23084.15239592 -.00004913  00000-0 -29112-3 0  9995,2 54101  53.2176 129.5980 0001211 109.4912 250.6211 15.08799718 24549,6918.004,95.44,540.706,539.031,0.0
54101.0,STARLINK-5204,PAYLOAD,2023-03-25 11:36:22,15.08807333,0.0001364,53.2193,128.1121,107.166,252.9482,-0.00027118,-4.597e-05,0.0,0 STARLINK-5204,1 54101U 22136BC  23084.48359734 -.00004597  00000-0 -27118-3 0  9994,2 54101  53.2193 128.1121 0001364 107.1660 252.9482 15.08807333 24597,6917.98,95.44,540.789,538.902,0.0
54101.0,STARLINK-5204,PAYLOAD,2023-03-25 19:33:17,15.08825267,8.04e-05,53.2183,126.6259,168.9382,191.1628,-0.00010454,-1.95e-05,0.0,0 STARLINK-5204,1 54101U 22136BC  23084.81478125 -.00001950  00000-0 -10454-3 0  9992,2 54101  53.2183 126.6259 0000804 168.9382 191.1628 15.08825267 24643,6917.925,95.438,540.347,539.234,0.0
54101.0,STARLINK-5204,PAYLOAD,2023-03-26 03:30:12,15.08848265,0.0001205,53.2192,125.1373,110.6168,249.4953,-9.8559e-05,-1.856e-05,0.0,0 STARLINK-5204,1 54101U 22136BC  23085.14597385 -.00001856  00000-0 -98559-4 0  9997,2 54101  53.2192 125.1373 0001205 110.6168 249.4953 15.08848265 24692,6917.855,95.437,540.554,538.887,0.0
54101.0,STARLINK-5204,PAYLOAD,2023-03-26 11:27:06,15.08857541,0.0001078,53.2179,123.6492,110.3914,249.7194,1.7058e-05,-1.6e-07,0.0,0 STARLINK-5204,1 54101U 22136BC  23085.47716378 -.00000016  00000-0  17058-4 0  9999,2 54101  53.2179 123.6492 0001078 110.3914 249.7194 15.08857541 24749,6917.827,95.436,540.438,538.946,0.0
54101.0,STARLINK-5204,PAYLOAD,2023-03-26 19:24:02,15.08869923,9.02e-05,53.2163,122.1625,122.7545,237.3534,0.0009025,0.00014116,0.0,0 STARLINK-5204,1 54101U 22136BC  23085.80836363  .00014116  00000-0  90250-3 0  9992,2 54101  53.2163 122.1625 0000902 122.7545 237.3534 15.08869923 24328,6917.789,95.436,540.278,539.03,0.0
54101.0,STARLINK-5204,PAYLOAD,2023-03-27 03:20:58,15.08847245,8.78e-05,53.2176,120.6774,137.1666,222.9395,0.00084429,0.00013177,0.0,0 STARLINK-5204,1 54101U 22136BC  23086.13956968  .00013177  00000-0  84429-3 0  9990,2 54101  53.2176 120.6774 0000878 137.1666 222.9395 15.08847245 24841,6917.858,95.437,540.331,539.116,0.0
54101.0,STARLINK-5204,PAYLOAD,2023-03-27 11:17:54,15.08837461,0.000107,53.2172,119.1891,107.2014,252.9096,-6.8293e-05,-1.374e-05,0.0,0 STARLINK-5204,1 54101U 22136BC  23086.47077511 -.00001374  00000-0 -68293-4 0  9995,2 54101  53.2172 119.1891 0001070 107.2014 252.9096 15.08837461 24895,6917.888,95.438,540.493,539.013,0.0
54101.0,STARLINK-5204,PAYLOAD,2023-03-27 19:14:50,15.0884827,0.0001007,53.2168,117.7021,106.2878,253.8225,-8.7214e-05,-1.676e-05,0.0,0 STARLINK-5204,1 54101U 22136BC  23086.80196879 -.00001676  00000-0 -87214-4 0  9990,2 54101  53.2168 117.7021 0001007 106.2878 253.8225 15.08848270 24946,6917.855,95.437,540.417,539.023,0.0
54101.0,STARLINK-5204,PAYLOAD,2023-03-28 11:08:41,15.08859962,0.0001197,53.2162,114.7283,101.1091,259.0036,0.0012515,0.00019697,0.0,0 STARLINK-5204,1 54101U 22136BC  23087.46436735  .00019697  00000-0  12515-2 0  9991,2 54101  53.2162 114.7283 0001197 101.1091 259.0036 15.08859962 24575,6917.819,95.436,540.512,538.856,0.0
54101.0,STARLINK-5204,PAYLOAD,2023-03-28 19:05:37,15.08851457,0.0001206,53.2175,113.242,85.3369,274.7761,0.00081576,0.00012723,0.0,0 STARLINK-5204,1 54101U 22136BC  23087.79556902  .00012723  00000-0  81576-3 0  9993,2 54101  53.2175 113.2420 0001206  85.3369 274.7761 15.08851457 24624,6917.845,95.437,540.545,538.876,0.0
54101.0,STARLINK-5204,PAYLOAD,2023-03-29 01:27:09,15.08848621,0.0001395,53.2151,112.0542,81.7556,278.3594,0.00060404,9.341e-05,0.0,0 STARLINK-5204,1 54101U 22136BC  23088.06052985  .00009341  00000-0  60404-3 0  9995,2 54101  53.2151 112.0542 0001395  81.7556 278.3594 15.08848621 25137,6917.854,95.437,540.684,538.754,0.0
54101.0,STARLINK-5204,PAYLOAD,2023-03-29 06:13:19,15.08832633,9.1e-05,53.2186,111.1584,115.2287,244.88,2.3672e-05,8.9e-07,0.0,0 STARLINK-5204,1 54101U 22136BC  23088.25925164  .00000089  00000-0  23672-4 0  9991,2 54101  53.2186 111.1584 0000910 115.2287 244.8800 15.08832633 25164,6917.903,95.438,540.397,539.138,0.0
54101.0,STARLINK-5204,PAYLOAD,2023-03-29 12:34:52,15.08821684,0.0001456,53.2175,109.9686,106.7659,253.3493,-7.6082e-05,-1.498e-05,0.0,0 STARLINK-5204,1 54101U 22136BC  23088.52422355 -.00001498  00000-0 -76082-4 0  9995,2 54101  53.2175 109.9686 0001456 106.7659 253.3493 15.08821684 25206,6917.936,95.439,540.809,538.794,0.0
54101.0,STARLINK-5204,PAYLOAD,2023-03-29 18:56:25,15.08829605,0.0001042,53.2173,108.7815,96.3242,263.7869,6.9786e-05,8.23e-06,0.0,0 STARLINK-5204,1 54101U 22136BC  23088.78918442  .00000823  00000-0  69786-4 0  9992,2 54101  53.2173 108.7815 0001042  96.3242 263.7869 15.08829605 24772,6917.912,95.438,540.498,539.056,0.0
54101.0,STARLINK-5204,PAYLOAD,2023-03-30 04:28:43,15.08840244,0.0001293,53.2172,106.9995,72.5426,287.5708,0.00011834,1.596e-05,0.0,0 STARLINK-5204,1 54101U 22136BC  23089.18662014  .00001596  00000-0  11834-3 0  9996,2 54101  53.2172 106.9995 0001293  72.5426 287.5708 15.08840244 25306,6917.88,95.438,540.639,538.85,0.0
54101.0,STARLINK-5204,PAYLOAD,2023-03-30 12:25:39,15.08853945,0.0001325,53.2169,105.511,78.8365,281.2776,0.00051737,7.959e-05,0.0,0 STARLINK-5204,1 54101U 22136BC  23089.51781676  .00007959  00000-0  51737-3 0  9994,2 54101  53.2169 105.5110 0001325  78.8365 281.2776 15.08853945 25356,6917.838,95.437,540.619,538.786,0.0
54101.0,STARLINK-5204,PAYLOAD,2023-03-31 01:08:44,15.08853284,0.0001385,53.2165,103.1323,77.235,282.8797,0.00054175,8.348e-05,0.0,0 STARLINK-5204,1 54101U 22136BC  23090.04773818  .00008348  00000-0  54175-3 0  9995,2 54101  53.2165 103.1323 0001385  77.2350 282.8797 15.08853284 25430,6917.84,95.437,540.663,538.747,0.0
54101.0,STARLINK-5204,PAYLOAD,2023-03-31 12:16:25,15.08872428,0.0001483,53.2171,101.0496,84.4738,275.6423,0.00077021,0.00012002,0.0,0 STARLINK-5204,1 54101U 22136BC  23090.51140840  .00012002  00000-0  77021-3 0  9997,2 54101  53.2171 101.0496 0001483  84.4738 275.6423 15.08872428 25509,6917.781,95.436,540.672,538.62,0.0
54101.0,STARLINK-5204,PAYLOAD,2023-04-01 04:10:17,15.08843779,0.0001315,53.217,98.077,101.1756,258.9384,-4.0338e-05,-9.3e-06,0.0,0 STARLINK-5204,1 54101U 22136BC  23091.17381153 -.00000930  00000-0 -40338-4 0  9995,2 54101  53.2170  98.0770 0001315 101.1756 258.9384 15.08843779 25607,6917.869,95.437,540.644,538.824,0.0
54101.0,STARLINK-5204,PAYLOAD,2023-04-01 12:07:12,15.08852191,0.0001382,53.2175,96.5898,108.4055,251.7088,0.00081293,0.00012678,0.0,0 STARLINK-5204,1 54101U 22136BC  23091.50501066  .00012678  00000-0  81293-3 0  9993,2 54101  53.2175  96.5898 0001382 108.4055 251.7088 15.08852191 25185,6917.843,95.437,540.664,538.752,0.0
54101.0,STARLINK-5204,PAYLOAD,2023-04-02 05:36:27,15.08841422,0.0001578,53.2173,93.3179,110.9952,249.1209,0.00090313,0.00014115,0.0,0 STARLINK-5204,1 54101U 22136BC  23092.23365671  .00014115  00000-0  90313-3 0  9995,2 54101  53.2173  93.3179 0001578 110.9952 249.1209 15.08841422 25766,6917.876,95.437,540.833,538.649,0.0
54101.0,STARLINK-5204,PAYLOAD,2023-04-02 10:22:37,15.08848015,0.000131,53.2177,92.4272,97.4828,262.6313,0.00084993,0.00013267,0.0,0 STARLINK-5204,1 54101U 22136BC  23092.43237655  .00013267  00000-0  84993-3 0  9991,2 54101  53.2177  92.4272 0001310  97.4828 262.6313 15.08848015 25322,6917.856,95.437,540.627,538.815,0.0
54101.0,STARLINK-5204,PAYLOAD,2023-04-02 16:44:10,15.08838069,0.0001472,53.2174,91.2373,94.5926,265.5234,0.00038531,5.849e-05,0.0,0 STARLINK-5204,1 54101U 22136BC  23092.69733905  .00005849  00000-0  38531-3 0  9992,2 54101  53.2174  91.2373 0001472  94.5926 265.5234 15.08838069 25832,6917.886,95.438,540.77,538.733,0.0
54101.0,STARLINK-5204,PAYLOAD,2023-04-03 11:48:47,15.08850342,0.0001291,53.2172,87.6687,95.7766,264.3374,0.00048862,7.499e-05,0.0,0 STARLINK-5204,1 54101U 22136BC  23093.49221581  .00007499  00000-0  48862-3 0  9994,2 54101  53.2172  87.6687 0001291  95.7766 264.3374 15.08850342 25482,6917.849,95.437,540.607,538.821,0.0
